NORAD_CAT_ID,OBJECT_NAME,OBJECT_TYPE,EPOCH,MEAN_MOTION,ECCENTRICITY,INCLINATION,RA_OF_ASC_NODE,ARG_OF_PERICENTER,MEAN_ANOMALY,BSTAR,MEAN_MOTION_DOT,MEAN_MOTION_DDOT,TLE_LINE0,TLE_LINE1,TLE_LINE2,SEMIMAJOR_AXIS,PERIOD,APOGEE,PERIGEE,DECAYED
52619.0,STARLINK-3741,PAYLOAD,2022-07-10 14:00:01,15.52916184,0.0001189,53.2173,159.3798,64.0191,236.1454,-0.018514,-0.0106373,0.0,0 STARLINK-3741,1 52619U 22052X   22191.58334491 -.01063730  00000-0 -18514-1 0  9998,2 52619  53.2173 159.3798 0001189  64.0191 236.1454 15.52916184  1309,6786.354,92.729,409.026,407.412,0.0
52619.0,STARLINK-3741,PAYLOAD,2022-07-10 22:00:00,15.52153327,0.0001091,53.2174,157.7776,73.6457,290.6101,-0.018906,-0.01057174,0.0,0 STARLINK-3741,1 52619U 22052X   22191.91667824 -.01057174  00000-0 -18906-1 0  9994,2 52619  53.2174 157.7776 0001091  73.6457 290.6101 15.52153327  1307,6788.5769999999975,92.774,411.1830000000001,409.702,0.0
52619.0,STARLINK-3741,PAYLOAD,2022-07-11 14:00:01,15.50519183,0.0001209,53.2174,154.5822,83.4541,46.2611,-0.013015,-0.00692554,0.0,0 STARLINK-3741,1 52619U 22052X   22192.58334491 -.00692554  00000-0 -13015-1 0  9991,2 52619  53.2174 154.5822 0001209  83.4541  46.2611 15.50519183  1303,6793.346,92.872,416.032,414.39,0.0
52619.0,STARLINK-3741,PAYLOAD,2022-07-11 22:00:00,15.49904924,0.0001312,53.2176,152.9868,75.3037,115.7971,-0.00051849,-0.00029787,0.0,0 STARLINK-3741,1 52619U 22052X   22192.91667824 -.00029787  00000-0 -51849-3 0  9998,2 52619  53.2176 152.9868 0001312  75.3037 115.7971 15.49904924  1302,6795.141,92.909,417.897,416.114,0.0
52619.0,STARLINK-3741,PAYLOAD,2022-07-12 14:00:01,15.49723525,0.0001145,53.217,149.7994,80.6757,232.1751,-0.020811,-0.01065634,0.0,0 STARLINK-3741,1 52619U 22052X   22193.58334491 -.01065634  00000-0 -20811-1 0  9998,2 52619  53.2170 149.7994 0001145  80.6757 232.1751 15.49723525  1308,6795.670999999999,92.92,418.314,416.758,0.0
52619.0,STARLINK-3741,PAYLOAD,2022-07-12 20:00:01,15.49147776,0.0001262999999999,53.2174,148.6027,69.8206,198.3072,-0.021056,-0.0105723,0.0,0 STARLINK-3741,1 52619U 22052X   22193.83334491 -.01057230  00000-0 -21056-1 0  9991,2 52619  53.2174 148.6027 0001263  69.8206 198.3072 15.49147776  9659,6797.355,92.954,420.078,418.361,0.0
52619.0,STARLINK-3741,PAYLOAD,2022-07-12 22:00:00,15.48958714,0.0001169,53.2175,148.2049,61.8899,311.2141,-0.021214,-0.01057956,0.0,0 STARLINK-3741,1 52619U 22052X   22193.91667824 -.01057956  00000-0 -21214-1 0  9990,2 52619  53.2175 148.2049 0001169  61.8899 311.2141 15.48958714  1303,6797.908,92.966,420.568,418.978,0.0
52619.0,STARLINK-3741,PAYLOAD,2022-07-13 12:00:02,15.47629709,0.0001093,53.2171,145.4213,71.0959,315.3136,-0.022244,-0.0105852,0.0,0 STARLINK-3741,1 52619U 22052X   22194.50002315 -.01058520  00000-0 -22244-1 0  9996,2 52619  53.2171 145.4213 0001093  71.0959 315.3136 15.47629709  9762,6801.799,93.046,424.408,422.921,0.0
52619.0,STARLINK-3741,PAYLOAD,2022-07-13 14:00:01,15.47440015,0.0001248,53.2173,145.0236,72.268,58.5977,-0.022391,-0.01058504,0.0,0 STARLINK-3741,1 52619U 22052X   22194.58334491 -.01058504  00000-0 -22391-1 0  9992,2 52619  53.2173 145.0236 0001248  72.2680  58.5977 15.47440015  1303,6802.355,93.057,425.069,423.371,0.0
52619.0,STARLINK-3741,PAYLOAD,2022-07-13 22:00:00,15.46679072,0.0001365,53.2175,143.4352,71.6673,116.7107,-0.022923,-0.01055575,0.0,0 STARLINK-3741,1 52619U 22052X   22194.91667824 -.01055575  00000-0 -22923-1 0  9994,2 52619  53.2175 143.4352 0001365  71.6673 116.7107 15.46679072  1309,6804.5859999999975,93.103,427.38,425.522,0.0
52619.0,STARLINK-3741,PAYLOAD,2022-07-14 04:00:00,15.46110882,0.0001364,53.2172,142.2468,67.8558,73.0558,-0.023441,-0.01058078,0.0,0 STARLINK-3741,1 52619U 22052X   22195.16667824 -.01058078  00000-0 -23441-1 0  9999,2 52619  53.2172 142.2468 0001364  67.8558  73.0558 15.46110882  9862,6806.253000000002,93.137,429.046,427.19,0.0
52619.0,STARLINK-3741,PAYLOAD,2022-07-14 14:00:01,15.4516275,0.0001136,53.2174,140.2646,87.1521,213.5109,-0.024281,-0.0106037,0.0,0 STARLINK-3741,1 52619U 22052X   22195.58334491 -.01060370  00000-0 -24281-1 0  9997,2 52619  53.2174 140.2646 0001136  87.1521 213.5109 15.45162750  1306,6809.0369999999975,93.194,431.675,430.128,0.0
52619.0,STARLINK-3741,PAYLOAD,2022-07-14 20:00:01,15.44590544,0.0001273,53.2173,139.0767,83.6009,168.2289,-0.024625,-0.01055027,0.0,0 STARLINK-3741,1 52619U 22052X   22195.83334491 -.01055027  00000-0 -24625-1 0  9990,2 52619  53.2173 139.0767 0001273  83.6009 168.2289 15.44590544  9969,6810.718000000003,93.229,433.45,431.716,0.0
52619.0,STARLINK-3741,PAYLOAD,2022-07-14 22:00:00,15.44401964,0.0001104,53.2174,138.6817,78.8915,276.5456,-0.024846,-0.01057354,0.0,0 STARLINK-3741,1 52619U 22052X   22195.91667824 -.01057354  00000-0 -24846-1 0  9998,2 52619  53.2174 138.6817 0001104  78.8915 276.5456 15.44401964  1302,6811.273,93.24,433.89,432.386,0.0
52619.0,STARLINK-3741,PAYLOAD,2022-07-15 12:00:00,15.43073074,0.0001053,53.2173,135.9169,83.3502,275.7449,-0.026017,-0.01072901,0.0,0 STARLINK-3741,1 52619U 22052X   22196.50001157 -.01072901  00000-0 -26017-1 0  9992,2 52619  53.2173 135.9169 0001053  83.3502 275.7449 15.43073074 10070,6815.183000000001,93.32,437.765,436.33,0.0
52619.0,STARLINK-3741,PAYLOAD,2022-07-15 14:00:01,15.42881432,0.0001177,53.2175,135.5219,78.6041,23.6435,-0.026105,-0.01069855,0.0,0 STARLINK-3741,1 52619U 22052X   22196.58334491 -.01069855  00000-0 -26105-1 0  9992,2 52619  53.2175 135.5219 0001177  78.6041  23.6435 15.42881432  1301,6815.746999999999,93.332,438.414,436.81,0.0
52619.0,STARLINK-3741,PAYLOAD,2022-07-15 22:00:00,15.42121692,0.0001395,53.2176,133.9447,66.237,88.0465,-0.026763,-0.01069153,0.0,0 STARLINK-3741,1 52619U 22052X   22196.91667824 -.01069153  00000-0 -26763-1 0  9999,2 52619  53.2176 133.9447 0001395  66.2370  88.0465 15.42121692  1300,6817.986,93.378,440.802,438.899,0.0
52619.0,STARLINK-3741,PAYLOAD,2022-07-16 04:00:00,15.41554071,0.0001274,53.2176,132.7645,72.6742,30.0355,-0.027366,-0.01072279,0.0,0 STARLINK-3741,1 52619U 22052X   22197.16667824 -.01072279  00000-0 -27366-1 0  9990,2 52619  53.2176 132.7645 0001274  72.6742  30.0355 15.41554071 10177,6819.659000000002,93.412,442.393,440.655,0.0
52619.0,STARLINK-3741,PAYLOAD,2022-07-16 14:00:01,15.40603645,0.0001243,53.2176,130.7955,87.9788,167.6382,-0.028197,-0.01070428,0.0,0 STARLINK-3741,1 52619U 22052X   22197.58334491 -.01070428  00000-0 -28197-1 0  9994,2 52619  53.2176 130.7955 0001243  87.9788 167.6382 15.40603645  1307,6822.464,93.47,445.177,443.481,0.0
52619.0,STARLINK-3741,PAYLOAD,2022-07-16 20:00:01,15.40033544,0.0001351999999999,53.2176,129.6163,85.8147,116.8612,-0.028687,-0.0106874,0.0,0 STARLINK-3741,1 52619U 22052X   22197.83334491 -.01068740  00000-0 -28687-1 0  9990,2 52619  53.2176 129.6163 0001352  85.8147 116.8612 15.40033544 10275,6824.147,93.504,446.935,445.09,0.0
52619.0,STARLINK-3741,PAYLOAD,2022-07-16 22:00:00,15.39843889,0.0001232,53.2177,129.224,70.1054,234.8093,-0.028896,-0.01069664,0.0,0 STARLINK-3741,1 52619U 22052X   22197.91667824 -.01069664  00000-0 -28896-1 0  9996,2 52619  53.2177 129.2240 0001232  70.1054 234.8093 15.39843889  1306,6824.708000000001,93.516,447.413,445.732,0.0
52619.0,STARLINK-3741,PAYLOAD,2022-07-17 12:00:00,15.38516489,0.0001182,53.2174,126.4777,92.8562,206.1334,-0.030298,-0.01073153,0.0,0 STARLINK-3741,1 52619U 22052X   22198.50001157 -.01073153  00000-0 -30298-1 0  9990,2 52619  53.2174 126.4777 0001182  92.8562 206.1334 15.38516489 10375,6828.632,93.597,451.305,449.69,0.0
52619.0,STARLINK-3741,PAYLOAD,2022-07-17 14:00:01,15.38323704,0.0001078,53.2175,126.0853,86.3679,314.4056,-0.030338,-0.01068194,0.0,0 STARLINK-3741,1 52619U 22052X   22198.58334491 -.01068194  00000-0 -30338-1 0  9992,2 52619  53.2175 126.0853 0001078  86.3679 314.4056 15.38323704  1301,6829.203,93.608,451.804,450.332,0.0
52619.0,STARLINK-3741,PAYLOAD,2022-07-17 22:00:00,15.37565832,0.0001188,53.2176,124.5195,82.321,5.0113,-0.031172,-0.01070481,0.0,0 STARLINK-3741,1 52619U 22052X   22198.91667824 -.01070481  00000-0 -31172-1 0  9997,2 52619  53.2176 124.5195 0001188  82.3210   5.0113 15.37565832  1309,6831.446999999999,93.655,454.12300000000016,452.5,0.0
52619.0,STARLINK-3741,PAYLOAD,2022-07-18 12:00:00,15.36235907,0.0001147,53.2175,121.7824,84.4853,352.1312,-0.032501,-0.01068996,0.0,0 STARLINK-3741,1 52619U 22052X   22199.50001157 -.01068996  00000-0 -32501-1 0  9999,2 52619  53.2175 121.7824 0001147  84.4853 352.1312 15.36235907 10535,6835.389,93.736,458.038,456.47,0.0
52619.0,STARLINK-3741,PAYLOAD,2022-07-18 14:00:01,15.36044211,0.0001318,53.2174,121.3915,77.1161,100.5994,-0.03259,-0.01065627,0.0,0 STARLINK-3741,1 52619U 22052X   22199.58334491 -.01065627  00000-0 -32590-1 0  9993,2 52619  53.2174 121.3915 0001318  77.1161 100.5994 15.36044211  1304,6835.958000000001,93.747,458.724,456.922,0.0
52619.0,STARLINK-3741,PAYLOAD,2022-07-18 22:00:00,15.35285137,0.0001391,53.2176,119.8313,70.4834,151.0532,-0.033421,-0.0106632,0.0,0 STARLINK-3741,1 52619U 22052X   22199.91667824 -.01066320  00000-0 -33421-1 0  9994,2 52619  53.2176 119.8313 0001391  70.4834 151.0532 15.35285137  1306,6838.2109999999975,93.794,461.027,459.124,0.0
52619.0,STARLINK-3741,PAYLOAD,2022-07-19 04:00:00,15.34714975,0.0001458,53.2175,118.6628,63.5703,100.2333,-0.034002,-0.01065277,0.0,0 STARLINK-3741,1 52619U 22052X   22200.16667824 -.01065277  00000-0 -34002-1 0  9990,2 52619  53.2175 118.6628 0001458  63.5703 100.2333 15.34714975 10630,6839.904,93.828,462.766,460.772,0.0
52619.0,STARLINK-3741,PAYLOAD,2022-07-19 14:00:01,15.33765157,0.0001161,53.2174,116.7139,86.4474,219.996,-0.035029,-0.01064625,0.0,0 STARLINK-3741,1 52619U 22052X   22200.58334491 -.01064625  00000-0 -35029-1 0  9993,2 52619  53.2174 116.7139 0001161  86.4474 219.9960 15.33765157  1300,6842.728,93.887,465.387,463.798,0.0
